{
    "links": {
        "self": "http://www.neowsapp.com/rest/v1/neo/3545907?api_key=iIulBulltgU6a56xZRHN4H3l9WmuAYTsLGpBGhQ2"
    },
    "id": "3545907",
    "neo_reference_id": "3545907",
    "name": "(2010 RP64)",
    "designation": "2010 RP64",
    "nasa_jpl_url": "http://ssd.jpl.nasa.gov/sbdb.cgi?sstr=3545907",
    "absolute_magnitude_h": 27.2,
    "estimated_diameter": {
        "kilometers": {
            "estimated_diameter_min": 0.0096506147,
            "estimated_diameter_max": 0.0215794305
        },
        "meters": {
            "estimated_diameter_min": 9.6506146958,
            "estimated_diameter_max": 21.5794304844
        },
        "miles": {
            "estimated_diameter_min": 0.0059966121,
            "estimated_diameter_max": 0.0134088323
        },
        "feet": {
            "estimated_diameter_min": 31.6621227185,
            "estimated_diameter_max": 70.7986587106
        }
    },
    "is_potentially_hazardous_asteroid": false,
    "close_approach_data": [
        {
            "close_approach_date": "2010-09-08",
            "close_approach_date_full": "2010-Sep-08 01:31",
            "epoch_date_close_approach": 1283909460000,
            "relative_velocity": {
                "kilometers_per_second": "8.4117460398",
                "kilometers_per_hour": "30282.2857431552",
                "miles_per_hour": "18816.234716351"
            },
            "miss_distance": {
                "astronomical": "0.0152553984",
                "lunar": "5.9343499776",
                "kilometers": "2282175.106641408",
                "miles": "1418077.8541231104"
            },
            "orbiting_body": "Earth"
        }
    ],
    "orbital_data": {
        "orbit_id": "7",
        "orbit_determination_date": "2017-04-06 08:56:45",
        "first_observation_date": "2010-09-10",
        "last_observation_date": "2010-09-15",
        "data_arc_in_days": 5,
        "observations_used": 16,
        "orbit_uncertainty": "8",
        "minimum_orbit_intersection": ".015154",
        "jupiter_tisserand_invariant": "3.554",
        "epoch_osculation": "2455451.5",
        "eccentricity": ".5206541690039566",
        "semi_major_axis": "2.101845275730215",
        "inclination": "6.403326414090904",
        "ascending_node_longitude": "169.8817922665997",
        "orbital_period": "1113.011217095687",
        "perihelion_distance": "1.007510770320008",
        "perihelion_argument": "160.1139393220177",
        "aphelion_distance": "3.196179781140422",
        "perihelion_time": "2455434.917721826107",
        "mean_anomaly": "5.363486055584168",
        "mean_motion": ".3234468749914228",
        "equinox": "J2000",
        "orbit_class": {
            "orbit_class_type": "APO",
            "orbit_class_description": "Near-Earth asteroid orbits which cross the Earth’s orbit similar to that of 1862 Apollo",
            "orbit_class_range": "a (semi-major axis) > 1.0 AU; q (perihelion) < 1.017 AU"
        }
    },
    "is_sentry_object": false
}